[{"OBJECT_NAME":"GEESAT-3 02","OBJECT_ID":"2024-159B","EPOCH":"2026-03-09T22:45:04.115520","MEAN_MOTION":14.8381248,"ECCENTRICITY":0.00188552,"INCLINATION":49.9926,"RA_OF_ASC_NODE":183.54,"ARG_OF_PERICENTER":35.4495,"MEAN_ANOMALY":324.7693,"EPHEMERIS_TYPE":0,"CLASSIFICATION_TYPE":"U","NORAD_CAT_ID":61012,"ELEMENT_SET_NO":999,"REV_AT_EPOCH":8205,"BSTAR":0.00041202855,"MEAN_MOTION_DOT":3.232e-5,"MEAN_MOTION_DDOT":0},{"OBJECT_NAME":"FENGYUN 1C DEB","OBJECT_ID":"1999-025ETV","EPOCH":"2026-03-06T06:18:06.255360","MEAN_MOTION":14.72201198,"ECCENTRICITY":0.00723264,"INCLINATION":99.2648,"RA_OF_ASC_NODE":69.0197,"ARG_OF_PERICENTER":156.2808,"MEAN_ANOMALY":262.1793,"EPHEMERIS_TYPE":0,"CLASSIFICATION_TYPE":"U","NORAD_CAT_ID":38728,"ELEMENT_SET_NO":999,"REV_AT_EPOCH":66839,"BSTAR":0.0010697288,"MEAN_MOTION_DOT":6.968e-5,"MEAN_MOTION_DDOT":0}]
